[{"OBJECT_NAME":"OTP-2","OBJECT_ID":"2025-052AB","EPOCH":"2026-03-09T15:22:45.676416","MEAN_MOTION":15.22471318,"ECCENTRICITY":0.0007494,"INCLINATION":97.3983,"RA_OF_ASC_NODE":322.5927,"ARG_OF_PERICENTER":139.5012,"MEAN_ANOMALY":220.6784,"EPHEMERIS_TYPE":0,"CLASSIFICATION_TYPE":"U","NORAD_CAT_ID":63235,"ELEMENT_SET_NO":999,"REV_AT_EPOCH":5471,"BSTAR":0.00047808,"MEAN_MOTION_DOT":0.00011014,"MEAN_MOTION_DDOT":0},{"OBJECT_NAME":"OBJECT AJ","OBJECT_ID":"2025-313AJ","EPOCH":"2026-03-09T22:21:21.807360","MEAN_MOTION":15.2138311,"ECCENTRICITY":0.00131371,"INCLINATION":97.4064,"RA_OF_ASC_NODE":145.2514,"ARG_OF_PERICENTER":356.4876,"MEAN_ANOMALY":3.6265,"EPHEMERIS_TYPE":0,"CLASSIFICATION_TYPE":"U","NORAD_CAT_ID":67280,"ELEMENT_SET_NO":999,"REV_AT_EPOCH":1085,"BSTAR":0.00031142343,"MEAN_MOTION_DOT":6.931e-5,"MEAN_MOTION_DDOT":0}]
